QIANFAN-89              
1 63175U 25046S   25270.96036449  .00000229  00000+0  33590-3 0  9991
2 63175  88.9825 327.8732 0015526 352.3247   7.7664 13.50969981 37170
QIANFAN-90              
1 63176U 25046T   25270.91506662  .00000192  00000+0  27838-3 0  9993
2 63176  88.9826 327.8501 0012441 352.3354   7.7605 13.50981986 37183
